{"type": "FeatureCollection", "features": [ {"type": "Feature", "properties": {"norad_id": 59600, "name": "GSAT0227 (GALILEO 30)", "group": "gnss", "lat": 43.92036831711496, "lon": 148.84833269788564, "alt_km": 23211.115305035783, "timestamp": "2025-12-06T16:45:42.966831+00:00", "meta": {"OBJECT_NAME": "GSAT0227 (GALILEO 30)", "OBJECT_ID": "2024-079C", "EPOCH": "2025-12-03T16:06:35.879040", "MEAN_MOTION": 1.70474617, "ECCENTRICITY": 0.00034037, "INCLINATION": 54.9912, "RA_OF_ASC_NODE": 106.5479, "ARG_OF_PERICENTER": 113.2328, "MEAN_ANOMALY": 246.7577, "EPHEMERIS_TYPE": 0, "CLASSIFICATION_TYPE": "U", "NORAD_CAT_ID": 59600, "ELEMENT_SET_NO": 999, "REV_AT_EPOCH": 1003, "BSTAR": 0, "MEAN_MOTION_DOT": 1.8e-07, "MEAN_MOTION_DDOT": 0}, "tle": {"line1": "1 59600U 24079C   25337.67124860  .00000018  00000+0  00000+0 0  9993", "line2": "2 59600  54.9912 106.5479 0003403 113.2328 246.7577  1.70474617 10033"}}, "geometry": {"type": "Point", "coordinates": [148.84833269788564, 43.92036831711496]}}, {"type": "Feature", "properties": {"norad_id": 61182, "name": "GSAT0232 (GALILEO 32)", "group": "gnss", "lat": -51.53934737395108, "lon": 107.43868674200662, "alt_km": 23222.862365435212, "timestamp": "2025-12-06T16:45:42.966842+00:00", "meta": {"OBJECT_NAME": "GSAT0232 (GALILEO 32)", "OBJECT_ID": "2024-167A", "EPOCH": "2025-12-04T05:35:38.594112", "MEAN_MOTION": 1.70473104, "ECCENTRICITY": 0.00021975, "INCLINATION": 55.2442, "RA_OF_ASC_NODE": 226.6647, "ARG_OF_PERICENTER": 213.7297, "MEAN_ANOMALY": 325.6534, "EPHEMERIS_TYPE": 0, "CLASSIFICATION_TYPE": "U", "NORAD_CAT_ID": 61182, "ELEMENT_SET_NO": 999, "REV_AT_EPOCH": 755, "BSTAR": 0, "MEAN_MOTION_DOT": 4.1e-07, "MEAN_MOTION_DDOT": 0}, "tle": {"line1": "1 61182U 24167A   25338.23308558  .00000041  00000+0  00000+0 0  9996", "line2": "2 61182  55.2442 226.6647 0002197 213.7297 325.6534  1.70473104  7557"}}, "geometry": {"type": "Point", "coordinates": [107.43868674200662, -51.53934737395108]}}, {"type": "Feature", "properties": {"norad_id": 61183, "name": "GSAT0226 (GALILEO 31)", "group": "gnss", "lat": 4.079764334316871, "lon": -130.55318712249067, "alt_km": 23223.525404602045, "timestamp": "2025-12-06T16:45:42.966854+00:00", "meta": {"OBJECT_NAME": "GSAT0226 (GALILEO 31)", "OBJECT_ID": "2024-167B", "EPOCH": "2025-11-26T08:32:06.516672", "MEAN_MOTION": 1.70473481, "ECCENTRICITY": 6.079e-05, "INCLINATION": 55.246, "RA_OF_ASC_NODE": 226.8867, "ARG_OF_PERICENTER": 154.246, "MEAN_ANOMALY": 343.2327, "EPHEMERIS_TYPE": 0, "CLASSIFICATION_TYPE": "U", "NORAD_CAT_ID": 61183, "ELEMENT_SET_NO": 999, "REV_AT_EPOCH": 739, "BSTAR": 0, "MEAN_MOTION_DOT": 3e-07, "MEAN_MOTION_DDOT": 0}, "tle": {"line1": "1 61183U 24167B   25330.35563098  .00000030  00000+0  00000+0 0  9992", "line2": "2 61183  55.2460 226.8867 0000607 154.2460 343.2327  1.70473481  7395"}}, "geometry": {"type": "Point", "coordinates": [-130.55318712249067, 4.079764334316871]}}, {"type": "Feature", "properties": {"norad_id": 61186, "name": "BEIDOU-3 M25 (C47)", "group": "gnss", "lat": 3.6787988615997507, "lon": -48.47886660866526, "alt_km": 21522.626385609903, "timestamp": "2025-12-06T16:45:42.966869+00:00", "meta": {"OBJECT_NAME": "BEIDOU-3 M25 (C47)", "OBJECT_ID": "2024-168B", "EPOCH": "2025-12-06T03:42:38.696256", "MEAN_MOTION": 1.86229727, "ECCENTRICITY": 0.0005472, "INCLINATION": 54.6479, "RA_OF_ASC_NODE": 308.9479, "ARG_OF_PERICENTER": 294.8981, "MEAN_ANOMALY": 64.9511, "EPHEMERIS_TYPE": 0, "CLASSIFICATION_TYPE": "U", "NORAD_CAT_ID": 61186, "ELEMENT_SET_NO": 999, "REV_AT_EPOCH": 818, "BSTAR": 0, "MEAN_MOTION_DOT": -7.1e-07, "MEAN_MOTION_DDOT": 0}, "tle": {"line1": "1 61186U 24168B   25340.15461454 -.00000071  00000+0  00000+0 0  9994", "line2": "2 61186  54.6479 308.9479 0005472 294.8981  64.9511  1.86229727  8185"}}, "geometry": {"type": "Point", "coordinates": [-48.47886660866526, 3.6787988615997507]}}, {"type": "Feature", "properties": {"norad_id": 61187, "name": "BEIDOU-3 M27 (C49)", "group": "gnss", "lat": 32.02519719769964, "lon": 102.54227346141843, "alt_km": 21530.46428808225, "timestamp": "2025-12-06T16:45:42.966882+00:00", "meta": {"OBJECT_NAME": "BEIDOU-3 M27 (C49)", "OBJECT_ID": "2024-168C", "EPOCH": "2025-12-06T00:40:37.892640", "MEAN_MOTION": 1.86229869, "ECCENTRICITY": 0.00022747, "INCLINATION": 54.6434, "RA_OF_ASC_NODE": 308.936, "ARG_OF_PERICENTER": 331.2531, "MEAN_ANOMALY": 78.7916, "EPHEMERIS_TYPE": 0, "CLASSIFICATION_TYPE": "U", "NORAD_CAT_ID": 61187, "ELEMENT_SET_NO": 999, "REV_AT_EPOCH": 566, "BSTAR": 0, "MEAN_MOTION_DOT": -7.1e-07, "MEAN_MOTION_DDOT": 0}, "tle": {"line1": "1 61187U 24168C   25340.02821635 -.00000071  00000+0  00000+0 0  9992", "line2": "2 61187  54.6434 308.9360 0002274 331.2531  78.7916  1.86229869  5669"}}, "geometry": {"type": "Point", "coordinates": [102.54227346141843, 32.02519719769964]}}, {"type": "Feature", "properties": {"norad_id": 62339, "name": "GPS BIII-7  (PRN 01)", "group": "gnss", "lat": -30.46956751541639, "lon": -173.601513732319, "alt_km": 20203.89894313868, "timestamp": "2025-12-06T16:45:42.966893+00:00", "meta": {"OBJECT_NAME": "GPS BIII-7  (PRN 01)", "OBJECT_ID": "2024-242A", "EPOCH": "2025-12-06T03:34:51.967776", "MEAN_MOTION": 2.00567316, "ECCENTRICITY": 0.00118388, "INCLINATION": 54.9253, "RA_OF_ASC_NODE": 342.0071, "ARG_OF_PERICENTER": 343.7333, "MEAN_ANOMALY": 198.0861, "EPHEMERIS_TYPE": 0, "CLASSIFICATION_TYPE": "U", "NORAD_CAT_ID": 62339, "ELEMENT_SET_NO": 999, "REV_AT_EPOCH": 738, "BSTAR": 0, "MEAN_MOTION_DOT": -8.2e-07, "MEAN_MOTION_DDOT": 0}, "tle": {"line1": "1 62339U 24242A   25340.14921259 -.00000082  00000+0  00000+0 0  9993", "line2": "2 62339  54.9253 342.0071 0011838 343.7333 198.0861  2.00567316  7388"}}, "geometry": {"type": "Point", "coordinates": [-173.601513732319, -30.46956751541639]}}, {"type": "Feature", "properties": {"norad_id": 62850, "name": "NVS-02 (IRNSS-1K)", "group": "gnss", "lat": -0.268767763568645, "lon": 150.53788867375212, "alt_km": 30152.13401444884, "timestamp": "2025-12-06T16:45:42.966905+00:00", "meta": {"OBJECT_NAME": "NVS-02 (IRNSS-1K)", "OBJECT_ID": "2025-020A", "EPOCH": "2025-12-06T02:45:02.996928", "MEAN_MOTION": 2.1758761, "ECCENTRICITY": 0.73477777, "INCLINATION": 21.001, "RA_OF_ASC_NODE": 330.0565, "ARG_OF_PERICENTER": 21.9352, "MEAN_ANOMALY": 357.7365, "EPHEMERIS_TYPE": 0, "CLASSIFICATION_TYPE": "U", "NORAD_CAT_ID": 62850, "ELEMENT_SET_NO": 999, "REV_AT_EPOCH": 677, "BSTAR": 0.00034878453, "MEAN_MOTION_DOT": 4.41e-06, "MEAN_MOTION_DDOT": 0}, "tle": {"line1": "1 62850U 25020A   25340.11461802  .00000441  00000+0  34878-3 0  9998", "line2": "2 62850  21.0010 330.0565 7347777  21.9352 357.7365  2.17587610  6776"}}, "geometry": {"type": "Point", "coordinates": [150.53788867375212, -0.268767763568645]}}, {"type": "Feature", "properties": {"norad_id": 63130, "name": "COSMOS 2584 (704K)", "group": "gnss", "lat": -31.689631330205632, "lon": 62.622849731257006, "alt_km": 19140.607227540302, "timestamp": "2025-12-06T16:45:42.966917+00:00", "meta": {"OBJECT_NAME": "COSMOS 2584 (704K)", "OBJECT_ID": "2025-042A", "EPOCH": "2025-12-05T08:05:04.392960", "MEAN_MOTION": 2.13102926, "ECCENTRICITY": 0.00075778, "INCLINATION": 64.9722, "RA_OF_ASC_NODE": 79.3982, "ARG_OF_PERICENTER": 214.8728, "MEAN_ANOMALY": 145.0805, "EPHEMERIS_TYPE": 0, "CLASSIFICATION_TYPE": "U", "NORAD_CAT_ID": 63130, "ELEMENT_SET_NO": 999, "REV_AT_EPOCH": 591, "BSTAR": 0, "MEAN_MOTION_DOT": -2.1e-07, "MEAN_MOTION_DDOT": 0}, "tle": {"line1": "1 63130U 25042A   25339.33685640 -.00000021  00000+0  00000+0 0  9995", "line2": "2 63130  64.9722  79.3982 0007577 214.8728 145.0805  2.13102926  5915"}}, "geometry": {"type": "Point", "coordinates": [62.622849731257006, -31.689631330205632]}}, {"type": "Feature", "properties": {"norad_id": 64202, "name": "GPS BIII-8  (PRN 21)", "group": "gnss", "lat": 37.6113743906407, "lon": 71.40180426273388, "alt_km": 20180.62453562954, "timestamp": "2025-12-06T16:45:42.966930+00:00", "meta": {"OBJECT_NAME": "GPS BIII-8  (PRN 21)", "OBJECT_ID": "2025-116A", "EPOCH": "2025-12-03T06:10:25.375296", "MEAN_MOTION": 2.00558491, "ECCENTRICITY": 0.0004994, "INCLINATION": 55.0986, "RA_OF_ASC_NODE": 39.0246, "ARG_OF_PERICENTER": 306.9577, "MEAN_ANOMALY": 136.4728, "EPHEMERIS_TYPE": 0, "CLASSIFICATION_TYPE": "U", "NORAD_CAT_ID": 64202, "ELEMENT_SET_NO": 999, "REV_AT_EPOCH": 394, "BSTAR": 0, "MEAN_MOTION_DOT": -6.8e-07, "MEAN_MOTION_DDOT": 0}, "tle": {"line1": "1 64202U 25116A   25337.25723814 -.00000068  00000+0  00000+0 0  9994", "line2": "2 64202  55.0986  39.0246 0004994 306.9577 136.4728  2.00558491  3947"}}, "geometry": {"type": "Point", "coordinates": [71.40180426273388, 37.6113743906407]}}, {"type": "Feature", "properties": {"norad_id": 65590, "name": "COSMOS 2596 (708K)", "group": "gnss", "lat": 63.890939017265445, "lon": 36.038180129725085, "alt_km": 19149.93385992685, "timestamp": "2025-12-06T16:45:42.966942+00:00", "meta": {"OBJECT_NAME": "COSMOS 2596 (708K)", "OBJECT_ID": "2025-206B", "EPOCH": "2025-12-05T10:56:18.216960", "MEAN_MOTION": 2.13100168, "ECCENTRICITY": 0.00140237, "INCLINATION": 64.7483, "RA_OF_ASC_NODE": 321.7274, "ARG_OF_PERICENTER": 304.902, "MEAN_ANOMALY": 264.8431, "EPHEMERIS_TYPE": 0, "CLASSIFICATION_TYPE": "U", "NORAD_CAT_ID": 65590, "ELEMENT_SET_NO": 999, "REV_AT_EPOCH": 177, "BSTAR": 0, "MEAN_MOTION_DOT": -5e-07, "MEAN_MOTION_DDOT": 0}, "tle": {"line1": "1 65590U 25206B   25339.45576640 -.00000050  00000+0  00000+0 0  9993", "line2": "2 65590  64.7483 321.7274 0014023 304.9020 264.8431  2.13100168  1778"}}, "geometry": {"type": "Point", "coordinates": [36.038180129725085, 63.890939017265445]}}]}